[{"OBJECT_NAME":"HAWK-2B","OBJECT_ID":"2021-006CZ","EPOCH":"2026-03-09T16:13:51.664224","MEAN_MOTION":15.33301353,"ECCENTRICITY":0.00071021,"INCLINATION":97.2334,"RA_OF_ASC_NODE":114.114,"ARG_OF_PERICENTER":185.9063,"MEAN_ANOMALY":174.2098,"EPHEMERIS_TYPE":0,"CLASSIFICATION_TYPE":"U","NORAD_CAT_ID":47508,"ELEMENT_SET_NO":999,"REV_AT_EPOCH":28424,"BSTAR":0.00029650607,"MEAN_MOTION_DOT":9.474e-5,"MEAN_MOTION_DDOT":0},{"OBJECT_NAME":"STARLINK-34881","OBJECT_ID":"2025-189AA","EPOCH":"2026-03-09T16:11:46.262400","MEAN_MOTION":15.30198799,"ECCENTRICITY":0.0001094,"INCLINATION":53.157,"RA_OF_ASC_NODE":206.8741,"ARG_OF_PERICENTER":63.0229,"MEAN_ANOMALY":297.0884,"EPHEMERIS_TYPE":0,"CLASSIFICATION_TYPE":"U","NORAD_CAT_ID":65347,"ELEMENT_SET_NO":999,"REV_AT_EPOCH":3111,"BSTAR":0.00093408853,"MEAN_MOTION_DOT":0.00027407,"MEAN_MOTION_DDOT":0}]
